STARLINK-34926          
1 65194U 25175W   25245.25003472 -.00059557  00000+0 -10988-2 0  9996
2 65194  97.6067 116.0359 0002276  93.7523 110.6974 15.49254048  4210
STARLINK-34928          
1 65195U 25175X   25245.25003472 -.00057647  00000+0 -10633-2 0  9992
2 65195  97.6066 116.0350 0002311  95.2317 107.2977 15.49253122  4261
STARLINK-34927          
1 65196U 25175Y   25245.25003472 -.00018008  00000+0 -32948-3 0  9995
2 65196  97.6066 116.0331 0002403  95.2161 103.4561 15.49233041  4265
STARLINK-34952          
1 65197U 25175Z   25245.25003472 -.00040192  00000+0 -73937-3 0  9998
2 65197  97.6065 116.0339 0002274  94.6439 105.9610 15.49244721  4269
STARLINK-34981          
1 65198U 25176A   25245.25003472 -.01448622  00000+0 -17081-1 0  9997
2 65198  53.1594 313.0788 0001182  91.3334  71.2266 15.63563449  4221
STARLINK-34821          
1 65199U 25176B   25245.25003472 -.01503429  00000+0 -18329-1 0  9991
2 65199  53.1597 313.2825 0001073  65.2035 358.2196 15.62830725  4162
STARLINK-34865          
1 65200U 25176C   25245.25003472 -.01503118  00000+0 -18325-1 0  9995
2 65200  53.1597 313.2864 0001039  69.5234 351.9838 15.62830507  4226
STARLINK-34843          
1 65201U 25176D   25245.25003472 -.01502473  00000+0 -18318-1 0  9991
2 65201  53.1597 313.2781 0001059  68.2200 357.1224 15.62828909  4226
STARLINK-34905          
1 65202U 25176E   25245.25003472 -.01502784  00000+0 -18321-1 0  9991
2 65202  53.1598 313.2742 0001169  68.6317 358.6264 15.62829695  4223
STARLINK-34914          
1 65203U 25176F   25245.25003472 -.01503225  00000+0 -18327-1 0  9999
2 65203  53.1597 313.2703 0001135  66.7779   2.3971 15.62829875  4222
STARLINK-34787          
1 65204U 25176G   25245.25003472 -.01501498  00000+0 -18304-1 0  9995
2 65204  53.1598 313.2661 0001170  67.8060   3.2860 15.62828778  4229
STARLINK-34796          
1 65205U 25176H   25245.25003472 -.01498624  00000+0 -18266-1 0  9999
2 65205  53.1596 313.2550 0001178  66.7863  10.0573 15.62827114  4222
STARLINK-34763          
1 65206U 25176J   25245.25003472 -.01501166  00000+0 -18299-1 0  9992
2 65206  53.1597 313.2505 0001152  66.2830  12.4762 15.62828737  4223
STARLINK-34901          
1 65207U 25176K   25245.25003472 -.01503366  00000+0 -18328-1 0  9990
2 65207  53.1597 313.2623 0001125  67.8059   5.2016 15.62830733  4226
STARLINK-34841          
1 65208U 25176L   25245.25003472 -.01502484  00000+0 -18317-1 0  9999
2 65208  53.1596 313.2584 0001087  68.3337   6.5916 15.62829681  4227
STARLINK-34976          
1 65209U 25176M   25245.25003472 -.01500494  00000+0 -18291-1 0  9990
2 65209  53.1597 313.2467 0001170  68.6628  12.0151 15.62827855  4222
