[{"OBJECT_NAME":"STARLINK-34926","OBJECT_ID":"2025-175W","EPOCH":"2025-09-02T06:00:02.999808","MEAN_MOTION":15.49254048,"ECCENTRICITY":0.00022762,"INCLINATION":97.6067,"RA_OF_ASC_NODE":116.0359,"ARG_OF_PERICENTER":93.7523,"MEAN_ANOMALY":110.6974,"EPHEMERIS_TYPE":0,"CLASSIFICATION_TYPE":"U","NORAD_CAT_ID":65194,"ELEMENT_SET_NO":999,"REV_AT_EPOCH":421,"BSTAR":-0.0010988172,"MEAN_MOTION_DOT":-0.00059557,"MEAN_MOTION_DDOT":0},{"OBJECT_NAME":"STARLINK-34928","OBJECT_ID":"2025-175X","EPOCH":"2025-09-02T06:00:02.999808","MEAN_MOTION":15.49253122,"ECCENTRICITY":0.00023112,"INCLINATION":97.6066,"RA_OF_ASC_NODE":116.035,"ARG_OF_PERICENTER":95.2317,"MEAN_ANOMALY":107.2977,"EPHEMERIS_TYPE":0,"CLASSIFICATION_TYPE":"U","NORAD_CAT_ID":65195,"ELEMENT_SET_NO":999,"REV_AT_EPOCH":426,"BSTAR":-0.0010632924,"MEAN_MOTION_DOT":-0.00057647,"MEAN_MOTION_DDOT":0},{"OBJECT_NAME":"STARLINK-34927","OBJECT_ID":"2025-175Y","EPOCH":"2025-09-02T06:00:02.999808","MEAN_MOTION":15.49233041,"ECCENTRICITY":0.00024031,"INCLINATION":97.6066,"RA_OF_ASC_NODE":116.0331,"ARG_OF_PERICENTER":95.2161,"MEAN_ANOMALY":103.4561,"EPHEMERIS_TYPE":0,"CLASSIFICATION_TYPE":"U","NORAD_CAT_ID":65196,"ELEMENT_SET_NO":999,"REV_AT_EPOCH":426,"BSTAR":-0.00032948281,"MEAN_MOTION_DOT":-0.00018008,"MEAN_MOTION_DDOT":0},{"OBJECT_NAME":"STARLINK-34952","OBJECT_ID":"2025-175Z","EPOCH":"2025-09-02T06:00:02.999808","MEAN_MOTION":15.49244721,"ECCENTRICITY":0.00022743,"INCLINATION":97.6065,"RA_OF_ASC_NODE":116.0339,"ARG_OF_PERICENTER":94.6439,"MEAN_ANOMALY":105.961,"EPHEMERIS_TYPE":0,"CLASSIFICATION_TYPE":"U","NORAD_CAT_ID":65197,"ELEMENT_SET_NO":999,"REV_AT_EPOCH":426,"BSTAR":-0.00073936896,"MEAN_MOTION_DOT":-0.00040192,"MEAN_MOTION_DDOT":0},{"OBJECT_NAME":"STARLINK-34981","OBJECT_ID":"2025-176A","EPOCH":"2025-09-02T06:00:02.999808","MEAN_MOTION":15.63563449,"ECCENTRICITY":0.00011824,"INCLINATION":53.1594,"RA_OF_ASC_NODE":313.0788,"ARG_OF_PERICENTER":91.3334,"MEAN_ANOMALY":71.2266,"EPHEMERIS_TYPE":0,"CLASSIFICATION_TYPE":"U","NORAD_CAT_ID":65198,"ELEMENT_SET_NO":999,"REV_AT_EPOCH":422,"BSTAR":-0.017081283,"MEAN_MOTION_DOT":-0.01448622,"MEAN_MOTION_DDOT":0},{"OBJECT_NAME":"STARLINK-34821","OBJECT_ID":"2025-176B","EPOCH":"2025-09-02T06:00:02.999808","MEAN_MOTION":15.62830725,"ECCENTRICITY":0.00010731,"INCLINATION":53.1597,"RA_OF_ASC_NODE":313.2825,"ARG_OF_PERICENTER":65.2035,"MEAN_ANOMALY":358.2196,"EPHEMERIS_TYPE":0,"CLASSIFICATION_TYPE":"U","NORAD_CAT_ID":65199,"ELEMENT_SET_NO":999,"REV_AT_EPOCH":416,"BSTAR":-0.018329244,"MEAN_MOTION_DOT":-0.01503429,"MEAN_MOTION_DDOT":0},{"OBJECT_NAME":"STARLINK-34865","OBJECT_ID":"2025-176C","EPOCH":"2025-09-02T06:00:02.999808","MEAN_MOTION":15.62830507,"ECCENTRICITY":0.00010396,"INCLINATION":53.1597,"RA_OF_ASC_NODE":313.2864,"ARG_OF_PERICENTER":69.5234,"MEAN_ANOMALY":351.9838,"EPHEMERIS_TYPE":0,"CLASSIFICATION_TYPE":"U","NORAD_CAT_ID":65200,"ELEMENT_SET_NO":999,"REV_AT_EPOCH":422,"BSTAR":-0.018325379,"MEAN_MOTION_DOT":-0.01503118,"MEAN_MOTION_DDOT":0},{"OBJECT_NAME":"STARLINK-34843","OBJECT_ID":"2025-176D","EPOCH":"2025-09-02T06:00:02.999808","MEAN_MOTION":15.62828909,"ECCENTRICITY":0.00010594,"INCLINATION":53.1597,"RA_OF_ASC_NODE":313.2781,"ARG_OF_PERICENTER":68.22,"MEAN_ANOMALY":357.1224,"EPHEMERIS_TYPE":0,"CLASSIFICATION_TYPE":"U","NORAD_CAT_ID":65201,"ELEMENT_SET_NO":999,"REV_AT_EPOCH":422,"BSTAR":-0.018317604,"MEAN_MOTION_DOT":-0.01502473,"MEAN_MOTION_DDOT":0},{"OBJECT_NAME":"STARLINK-34905","OBJECT_ID":"2025-176E","EPOCH":"2025-09-02T06:00:02.999808","MEAN_MOTION":15.62829695,"ECCENTRICITY":0.00011697,"INCLINATION":53.1598,"RA_OF_ASC_NODE":313.2742,"ARG_OF_PERICENTER":68.6317,"MEAN_ANOMALY":358.6264,"EPHEMERIS_TYPE":0,"CLASSIFICATION_TYPE":"U","NORAD_CAT_ID":65202,"ELEMENT_SET_NO":999,"REV_AT_EPOCH":422,"BSTAR":-0.018320547,"MEAN_MOTION_DOT":-0.01502784,"MEAN_MOTION_DDOT":0},{"OBJECT_NAME":"STARLINK-34914","OBJECT_ID":"2025-176F","EPOCH":"2025-09-02T06:00:02.999808","MEAN_MOTION":15.62829875,"ECCENTRICITY":0.0001135,"INCLINATION":53.1597,"RA_OF_ASC_NODE":313.2703,"ARG_OF_PERICENTER":66.7779,"MEAN_ANOMALY":2.3971,"EPHEMERIS_TYPE":0,"CLASSIFICATION_TYPE":"U","NORAD_CAT_ID":65203,"ELEMENT_SET_NO":999,"REV_AT_EPOCH":422,"BSTAR":-0.018326656,"MEAN_MOTION_DOT":-0.01503225,"MEAN_MOTION_DDOT":0},{"OBJECT_NAME":"STARLINK-34787","OBJECT_ID":"2025-176G","EPOCH":"2025-09-02T06:00:02.999808","MEAN_MOTION":15.62828778,"ECCENTRICITY":0.00011703,"INCLINATION":53.1598,"RA_OF_ASC_NODE":313.2661,"ARG_OF_PERICENTER":67.806,"MEAN_ANOMALY":3.286,"EPHEMERIS_TYPE":0,"CLASSIFICATION_TYPE":"U","NORAD_CAT_ID":65204,"ELEMENT_SET_NO":999,"REV_AT_EPOCH":422,"BSTAR":-0.018303654,"MEAN_MOTION_DOT":-0.01501498,"MEAN_MOTION_DDOT":0},{"OBJECT_NAME":"STARLINK-34796","OBJECT_ID":"2025-176H","EPOCH":"2025-09-02T06:00:02.999808","MEAN_MOTION":15.62827114,"ECCENTRICITY":0.00011786,"INCLINATION":53.1596,"RA_OF_ASC_NODE":313.255,"ARG_OF_PERICENTER":66.7863,"MEAN_ANOMALY":10.0573,"EPHEMERIS_TYPE":0,"CLASSIFICATION_TYPE":"U","NORAD_CAT_ID":65205,"ELEMENT_SET_NO":999,"REV_AT_EPOCH":422,"BSTAR":-0.018265599,"MEAN_MOTION_DOT":-0.01498624,"MEAN_MOTION_DDOT":0},{"OBJECT_NAME":"STARLINK-34763","OBJECT_ID":"2025-176J","EPOCH":"2025-09-02T06:00:02.999808","MEAN_MOTION":15.62828737,"ECCENTRICITY":0.00011521,"INCLINATION":53.1597,"RA_OF_ASC_NODE":313.2505,"ARG_OF_PERICENTER":66.283,"MEAN_ANOMALY":12.4762,"EPHEMERIS_TYPE":0,"CLASSIFICATION_TYPE":"U","NORAD_CAT_ID":65206,"ELEMENT_SET_NO":999,"REV_AT_EPOCH":422,"BSTAR":-0.018299269,"MEAN_MOTION_DOT":-0.01501166,"MEAN_MOTION_DDOT":0},{"OBJECT_NAME":"STARLINK-34901","OBJECT_ID":"2025-176K","EPOCH":"2025-09-02T06:00:02.999808","MEAN_MOTION":15.62830733,"ECCENTRICITY":0.00011254,"INCLINATION":53.1597,"RA_OF_ASC_NODE":313.2623,"ARG_OF_PERICENTER":67.8059,"MEAN_ANOMALY":5.2016,"EPHEMERIS_TYPE":0,"CLASSIFICATION_TYPE":"U","NORAD_CAT_ID":65207,"ELEMENT_SET_NO":999,"REV_AT_EPOCH":422,"BSTAR":-0.018328027,"MEAN_MOTION_DOT":-0.01503366,"MEAN_MOTION_DDOT":0},{"OBJECT_NAME":"STARLINK-34841","OBJECT_ID":"2025-176L","EPOCH":"2025-09-02T06:00:02.999808","MEAN_MOTION":15.62829681,"ECCENTRICITY":0.00010879,"INCLINATION":53.1596,"RA_OF_ASC_NODE":313.2584,"ARG_OF_PERICENTER":68.3337,"MEAN_ANOMALY":6.5916,"EPHEMERIS_TYPE":0,"CLASSIFICATION_TYPE":"U","NORAD_CAT_ID":65208,"ELEMENT_SET_NO":999,"REV_AT_EPOCH":422,"BSTAR":-0.018317003,"MEAN_MOTION_DOT":-0.01502484,"MEAN_MOTION_DDOT":0},{"OBJECT_NAME":"STARLINK-34976","OBJECT_ID":"2025-176M","EPOCH":"2025-09-02T06:00:02.999808","MEAN_MOTION":15.62827855,"ECCENTRICITY":0.00011704,"INCLINATION":53.1597,"RA_OF_ASC_NODE":313.2467,"ARG_OF_PERICENTER":68.6628,"MEAN_ANOMALY":12.0151,"EPHEMERIS_TYPE":0,"CLASSIFICATION_TYPE":"U","NORAD_CAT_ID":65209,"ELEMENT_SET_NO":999,"REV_AT_EPOCH":422,"BSTAR":-0.018290626,"MEAN_MOTION_DOT":-0.01500494,"MEAN_MOTION_DDOT":0}]
